PROBA-1                 
1 26958U 01049B   26032.96660238  .00003295  00000+0  21846-3 0  9999
2 26958  97.9597  36.8279 0054772 218.9590 140.7685 15.06819102323251
CUTE-1 (CO-55)          
1 27844U 03031E   26032.94593478  .00000371  00000+0  17973-3 0  9994
2 27844  98.6771  43.1922 0008966 213.0400 147.0219 14.24233978172428
CUBESAT XI-IV (CO-57)   
1 27848U 03031J   26032.93744987  .00000310  00000+0  15540-3 0  9991
2 27848  98.6800  43.0050 0008619 232.6069 127.4325 14.23533904172138
APRIZESAT 4             
1 35684U 09041D   26032.77621170  .00000973  00000+0  12302-3 0  9993
2 35684  98.1558 105.3467 0044310  42.0888 318.3714 14.83631834891288
APRIZESAT 3             
1 35686U 09041F   26032.92278913  .00001964  00000+0  17542-3 0  9997
2 35686  98.1829 179.8778 0062712 152.9759 207.4749 14.95715053896152
PROBA-2                 
1 36037U 09059B   26032.95476210  .00000322  00000+0  85652-4 0  9995
2 36037  98.2399 218.1923 0012750 343.4170  16.6609 14.54762219861862
APRIZESAT 5             
1 37792U 11044E   26032.73987120  .00001369  00000+0  18100-3 0  9999
2 37792  98.2388 322.0398 0053943  79.1081 281.6194 14.80733425778746
APRIZESAT 6             
1 37793U 11044F   26032.97716615  .00000882  00000+0  13212-3 0  9993
2 37793  98.2447 300.6846 0043724 156.8874 266.1718 14.76673147777199
PROBA-V                 
1 39159U 13021A   26032.88981719  .00000074  00000+0  50673-4 0  9993
2 39159  98.3448  18.2750 0004517 154.1293 206.0114 14.23563750661867
APRIZESAT 7             
1 39416U 13066A   26032.82622793  .00002112  00000+0  21628-3 0  9998
2 39416  97.7542 348.1679 0034693 301.6153  58.1681 14.91141849661050
APRIZESAT 8             
1 39425U 13066K   26032.79739558  .00001804  00000+0  20233-3 0  9990
2 39425  97.8067 342.3152 0046647  13.3920 346.8522 14.87293806659544
BUGSAT-1 (TITA)         
1 40014U 14033E   26032.95475103  .00005829  00000+0  32204-3 0  9994
2 40014  98.0493 117.7504 0027829 282.9984  76.8139 15.14013064635361
SAUDISAT 4              
1 40016U 14033G   26032.91731018  .00001106  00000+0  15287-3 0  9998
2 40016  97.7347 183.9157 0045633 152.1885 208.1781 14.79306633626075
APRIZESAT 9             
1 40018U 14033J   26032.92627322  .00000865  00000+0  13511-3 0  9992
2 40018  97.8829 169.6250 0065094 275.3382  84.0402 14.73987644623632
APRIZESAT 10            
1 40019U 14033K   26032.94874747  .00000555  00000+0  95161-4 0  9998
2 40019  97.9437 163.1117 0078698 346.6432  13.2690 14.70690465622374
TECHDEMOSAT-1 (TDS-1)   
1 40076U 14037H   26032.90092551  .00010234  00000+0  62143-3 0  9994
2 40076  98.3718  12.0398 0007235  20.9091 339.2431 15.10707630627781
