[{"OBJECT_NAME":"PROBA-1","OBJECT_ID":"2001-049B","EPOCH":"2026-02-01T23:11:54.445632","MEAN_MOTION":15.06819102,"ECCENTRICITY":0.00547723,"INCLINATION":97.9597,"RA_OF_ASC_NODE":36.8279,"ARG_OF_PERICENTER":218.959,"MEAN_ANOMALY":140.7685,"EPHEMERIS_TYPE":0,"CLASSIFICATION_TYPE":"U","NORAD_CAT_ID":26958,"ELEMENT_SET_NO":999,"REV_AT_EPOCH":32325,"BSTAR":0.00021846327,"MEAN_MOTION_DOT":3.295e-5,"MEAN_MOTION_DDOT":0},{"OBJECT_NAME":"CUTE-1 (CO-55)","OBJECT_ID":"2003-031E","EPOCH":"2026-02-01T22:42:08.764992","MEAN_MOTION":14.24233978,"ECCENTRICITY":0.00089666,"INCLINATION":98.6771,"RA_OF_ASC_NODE":43.1922,"ARG_OF_PERICENTER":213.04,"MEAN_ANOMALY":147.0219,"EPHEMERIS_TYPE":0,"CLASSIFICATION_TYPE":"U","NORAD_CAT_ID":27844,"ELEMENT_SET_NO":999,"REV_AT_EPOCH":17242,"BSTAR":0.00017972633,"MEAN_MOTION_DOT":3.71e-6,"MEAN_MOTION_DDOT":0},{"OBJECT_NAME":"CUBESAT XI-IV (CO-57)","OBJECT_ID":"2003-031J","EPOCH":"2026-02-01T22:29:55.668768","MEAN_MOTION":14.23533904,"ECCENTRICITY":0.00086198,"INCLINATION":98.68,"RA_OF_ASC_NODE":43.005,"ARG_OF_PERICENTER":232.6069,"MEAN_ANOMALY":127.4325,"EPHEMERIS_TYPE":0,"CLASSIFICATION_TYPE":"U","NORAD_CAT_ID":27848,"ELEMENT_SET_NO":999,"REV_AT_EPOCH":17213,"BSTAR":0.00015539674,"MEAN_MOTION_DOT":3.1e-6,"MEAN_MOTION_DDOT":0},{"OBJECT_NAME":"APRIZESAT 4","OBJECT_ID":"2009-041D","EPOCH":"2026-02-01T18:37:44.690880","MEAN_MOTION":14.83631834,"ECCENTRICITY":0.00443102,"INCLINATION":98.1558,"RA_OF_ASC_NODE":105.3467,"ARG_OF_PERICENTER":42.0888,"MEAN_ANOMALY":318.3714,"EPHEMERIS_TYPE":0,"CLASSIFICATION_TYPE":"U","NORAD_CAT_ID":35684,"ELEMENT_SET_NO":999,"REV_AT_EPOCH":89128,"BSTAR":0.00012301838,"MEAN_MOTION_DOT":9.73e-6,"MEAN_MOTION_DDOT":0},{"OBJECT_NAME":"APRIZESAT 3","OBJECT_ID":"2009-041F","EPOCH":"2026-02-01T22:08:48.980832","MEAN_MOTION":14.95715053,"ECCENTRICITY":0.00627121,"INCLINATION":98.1829,"RA_OF_ASC_NODE":179.8778,"ARG_OF_PERICENTER":152.9759,"MEAN_ANOMALY":207.4749,"EPHEMERIS_TYPE":0,"CLASSIFICATION_TYPE":"U","NORAD_CAT_ID":35686,"ELEMENT_SET_NO":999,"REV_AT_EPOCH":89615,"BSTAR":0.00017542304,"MEAN_MOTION_DOT":1.964e-5,"MEAN_MOTION_DDOT":0},{"OBJECT_NAME":"PROBA-2","OBJECT_ID":"2009-059B","EPOCH":"2026-02-01T22:54:51.445440","MEAN_MOTION":14.54762219,"ECCENTRICITY":0.00127507,"INCLINATION":98.2399,"RA_OF_ASC_NODE":218.1923,"ARG_OF_PERICENTER":343.417,"MEAN_ANOMALY":16.6609,"EPHEMERIS_TYPE":0,"CLASSIFICATION_TYPE":"U","NORAD_CAT_ID":36037,"ELEMENT_SET_NO":999,"REV_AT_EPOCH":86186,"BSTAR":8.5652215e-5,"MEAN_MOTION_DOT":3.22e-6,"MEAN_MOTION_DDOT":0},{"OBJECT_NAME":"APRIZESAT 5","OBJECT_ID":"2011-044E","EPOCH":"2026-02-01T17:45:24.871680","MEAN_MOTION":14.80733425,"ECCENTRICITY":0.00539436,"INCLINATION":98.2388,"RA_OF_ASC_NODE":322.0398,"ARG_OF_PERICENTER":79.1081,"MEAN_ANOMALY":281.6194,"EPHEMERIS_TYPE":0,"CLASSIFICATION_TYPE":"U","NORAD_CAT_ID":37792,"ELEMENT_SET_NO":999,"REV_AT_EPOCH":77874,"BSTAR":0.00018099619,"MEAN_MOTION_DOT":1.369e-5,"MEAN_MOTION_DDOT":0},{"OBJECT_NAME":"APRIZESAT 6","OBJECT_ID":"2011-044F","EPOCH":"2026-02-01T23:27:07.155360","MEAN_MOTION":14.76673147,"ECCENTRICITY":0.00437248,"INCLINATION":98.2447,"RA_OF_ASC_NODE":300.6846,"ARG_OF_PERICENTER":156.8874,"MEAN_ANOMALY":266.1718,"EPHEMERIS_TYPE":0,"CLASSIFICATION_TYPE":"U","NORAD_CAT_ID":37793,"ELEMENT_SET_NO":999,"REV_AT_EPOCH":77719,"BSTAR":0.00013212352,"MEAN_MOTION_DOT":8.82e-6,"MEAN_MOTION_DDOT":0},{"OBJECT_NAME":"PROBA-V","OBJECT_ID":"2013-021A","EPOCH":"2026-02-01T21:21:20.205216","MEAN_MOTION":14.2356375,"ECCENTRICITY":0.00045178,"INCLINATION":98.3448,"RA_OF_ASC_NODE":18.275,"ARG_OF_PERICENTER":154.1293,"MEAN_ANOMALY":206.0114,"EPHEMERIS_TYPE":0,"CLASSIFICATION_TYPE":"U","NORAD_CAT_ID":39159,"ELEMENT_SET_NO":999,"REV_AT_EPOCH":66186,"BSTAR":5.0673277e-5,"MEAN_MOTION_DOT":7.4e-7,"MEAN_MOTION_DDOT":0},{"OBJECT_NAME":"APRIZESAT 7","OBJECT_ID":"2013-066A","EPOCH":"2026-02-01T19:49:46.093152","MEAN_MOTION":14.91141849,"ECCENTRICITY":0.00346931,"INCLINATION":97.7542,"RA_OF_ASC_NODE":348.1679,"ARG_OF_PERICENTER":301.6153,"MEAN_ANOMALY":58.1681,"EPHEMERIS_TYPE":0,"CLASSIFICATION_TYPE":"U","NORAD_CAT_ID":39416,"ELEMENT_SET_NO":999,"REV_AT_EPOCH":66105,"BSTAR":0.00021628361,"MEAN_MOTION_DOT":2.112e-5,"MEAN_MOTION_DDOT":0},{"OBJECT_NAME":"APRIZESAT 8","OBJECT_ID":"2013-066K","EPOCH":"2026-02-01T19:08:14.978112","MEAN_MOTION":14.87293806,"ECCENTRICITY":0.00466473,"INCLINATION":97.8067,"RA_OF_ASC_NODE":342.3152,"ARG_OF_PERICENTER":13.392,"MEAN_ANOMALY":346.8522,"EPHEMERIS_TYPE":0,"CLASSIFICATION_TYPE":"U","NORAD_CAT_ID":39425,"ELEMENT_SET_NO":999,"REV_AT_EPOCH":65954,"BSTAR":0.00020233292,"MEAN_MOTION_DOT":1.804e-5,"MEAN_MOTION_DDOT":0},{"OBJECT_NAME":"BUGSAT-1 (TITA)","OBJECT_ID":"2014-033E","EPOCH":"2026-02-01T22:54:50.488992","MEAN_MOTION":15.14013064,"ECCENTRICITY":0.00278297,"INCLINATION":98.0493,"RA_OF_ASC_NODE":117.7504,"ARG_OF_PERICENTER":282.9984,"MEAN_ANOMALY":76.8139,"EPHEMERIS_TYPE":0,"CLASSIFICATION_TYPE":"U","NORAD_CAT_ID":40014,"ELEMENT_SET_NO":999,"REV_AT_EPOCH":63536,"BSTAR":0.00032204362,"MEAN_MOTION_DOT":5.829e-5,"MEAN_MOTION_DDOT":0},{"OBJECT_NAME":"SAUDISAT 4","OBJECT_ID":"2014-033G","EPOCH":"2026-02-01T22:00:55.599552","MEAN_MOTION":14.79306633,"ECCENTRICITY":0.00456339,"INCLINATION":97.7347,"RA_OF_ASC_NODE":183.9157,"ARG_OF_PERICENTER":152.1885,"MEAN_ANOMALY":208.1781,"EPHEMERIS_TYPE":0,"CLASSIFICATION_TYPE":"U","NORAD_CAT_ID":40016,"ELEMENT_SET_NO":999,"REV_AT_EPOCH":62607,"BSTAR":0.00015286583,"MEAN_MOTION_DOT":1.106e-5,"MEAN_MOTION_DDOT":0},{"OBJECT_NAME":"APRIZESAT 9","OBJECT_ID":"2014-033J","EPOCH":"2026-02-01T22:13:50.006208","MEAN_MOTION":14.73987644,"ECCENTRICITY":0.00650945,"INCLINATION":97.8829,"RA_OF_ASC_NODE":169.625,"ARG_OF_PERICENTER":275.3382,"MEAN_ANOMALY":84.0402,"EPHEMERIS_TYPE":0,"CLASSIFICATION_TYPE":"U","NORAD_CAT_ID":40018,"ELEMENT_SET_NO":999,"REV_AT_EPOCH":62363,"BSTAR":0.00013511124,"MEAN_MOTION_DOT":8.65e-6,"MEAN_MOTION_DDOT":0},{"OBJECT_NAME":"APRIZESAT 10","OBJECT_ID":"2014-033K","EPOCH":"2026-02-01T22:46:11.781408","MEAN_MOTION":14.70690465,"ECCENTRICITY":0.00786989,"INCLINATION":97.9437,"RA_OF_ASC_NODE":163.1117,"ARG_OF_PERICENTER":346.6432,"MEAN_ANOMALY":13.269,"EPHEMERIS_TYPE":0,"CLASSIFICATION_TYPE":"U","NORAD_CAT_ID":40019,"ELEMENT_SET_NO":999,"REV_AT_EPOCH":62237,"BSTAR":9.5161317e-5,"MEAN_MOTION_DOT":5.55e-6,"MEAN_MOTION_DDOT":0},{"OBJECT_NAME":"TECHDEMOSAT-1 (TDS-1)","OBJECT_ID":"2014-037H","EPOCH":"2026-02-01T21:37:19.964064","MEAN_MOTION":15.1070763,"ECCENTRICITY":0.00072353,"INCLINATION":98.3718,"RA_OF_ASC_NODE":12.0398,"ARG_OF_PERICENTER":20.9091,"MEAN_ANOMALY":339.2431,"EPHEMERIS_TYPE":0,"CLASSIFICATION_TYPE":"U","NORAD_CAT_ID":40076,"ELEMENT_SET_NO":999,"REV_AT_EPOCH":62778,"BSTAR":0.00062142982,"MEAN_MOTION_DOT":0.00010234,"MEAN_MOTION_DDOT":0}]
